STARLINK-3966           
1 52552U 22051V   26068.33842802 -.00002338  00000+0 -12890-3 0  9991
2 52552  53.2168 130.8518 0001235 101.2910 258.8221 15.08835623211392
DISKSAT D               
1 67221U 25305C   26068.55257179  .00011599  00000+0  76841-3 0  9999
2 67221  45.0023 251.6339 0003712 319.2749  40.7848 15.07416577 12277
